[{"OBJECT_NAME":"STARLINK-3300","OBJECT_ID":"2022-001AQ","EPOCH":"2026-03-09T14:59:19.080096","MEAN_MOTION":15.08840283,"ECCENTRICITY":0.0001396,"INCLINATION":53.2173,"RA_OF_ASC_NODE":179.4137,"ARG_OF_PERICENTER":79.4441,"MEAN_ANOMALY":280.6709,"EPHEMERIS_TYPE":0,"CLASSIFICATION_TYPE":"U","NORAD_CAT_ID":50841,"ELEMENT_SET_NO":999,"REV_AT_EPOCH":23025,"BSTAR":2.1192e-5,"MEAN_MOTION_DOT":4.9e-7,"MEAN_MOTION_DDOT":0},{"OBJECT_NAME":"ICEYE-X66","OBJECT_ID":"2025-248J","EPOCH":"2026-03-09T21:44:57.261984","MEAN_MOTION":15.08170847,"ECCENTRICITY":0.00050662,"INCLINATION":45.4014,"RA_OF_ASC_NODE":296.227,"ARG_OF_PERICENTER":203.4375,"MEAN_ANOMALY":156.6276,"EPHEMERIS_TYPE":0,"CLASSIFICATION_TYPE":"U","NORAD_CAT_ID":66301,"ELEMENT_SET_NO":999,"REV_AT_EPOCH":2051,"BSTAR":0.00021374435,"MEAN_MOTION_DOT":3.108e-5,"MEAN_MOTION_DDOT":0}]
